ONEWEB-0414             
1 50491U 21132Y   25290.28973772  .00000043  00000+0  77373-4 0  9998
2 50491  87.9231  23.6687 0001588 100.4679 259.6632 13.18684673189617
ONEWEB-0417             
1 50492U 21132Z   25290.29798791 -.00000038  00000+0 -12927-3 0  9995
2 50492  87.9234  23.7007 0001804  93.9123 266.2215 13.18685352189592
ONEWEB-0418             
1 50493U 21132AA  25290.30774585 -.00000069  00000+0 -20771-3 0  9993
2 50493  87.9233  23.6839 0001908  86.5134 273.6216 13.18684740189659
ONEWEB-0419             
1 50494U 21132AB  25290.25014482 -.00000068  00000+0 -20560-3 0  9996
2 50494  87.9230  23.6955 0002070  96.0395 264.0973 13.18684748189564
ONEWEB-0420             
1 50495U 21132AC  25290.29139009  .00000034  00000+0  54470-4 0  9993
2 50495  87.9230  23.6978 0001867 113.5646 246.5683 13.18685440189560
ONEWEB-0421             
1 50496U 21132AD  25290.28477939 -.00000007  00000+0 -49658-4 0  9994
2 50496  87.9227  23.6932 0001442 101.6221 258.5073 13.18684880189601
ONEWEB-0424             
1 50497U 21132AE  25290.24519493  .00000010  00000+0 -76420-5 0  9994
2 50497  87.9236  23.6967 0002196  98.4456 261.6925 13.18684295189623
ONEWEB-0426             
1 50498U 21132AF  25290.28149385 -.00000035  00000+0 -12147-3 0  9990
2 50498  87.9232  23.6804 0001311  82.0760 278.0521 13.18686415189579
